[{"OBJECT_NAME":"STARLINK-34965","OBJECT_ID":"2025-175N","EPOCH":"2026-03-09T15:23:17.348928","MEAN_MOTION":15.05654944,"ECCENTRICITY":0.0003384,"INCLINATION":97.6003,"RA_OF_ASC_NODE":302.6166,"ARG_OF_PERICENTER":86.2228,"MEAN_ANOMALY":273.9386,"EPHEMERIS_TYPE":0,"CLASSIFICATION_TYPE":"U","NORAD_CAT_ID":65186,"ELEMENT_SET_NO":999,"REV_AT_EPOCH":3263,"BSTAR":0.00067479,"MEAN_MOTION_DOT":9.691e-5,"MEAN_MOTION_DDOT":0},{"OBJECT_NAME":"CZ-6A DEB","OBJECT_ID":"2022-151NM","EPOCH":"2026-03-09T04:15:16.361280","MEAN_MOTION":14.99821734,"ECCENTRICITY":0.00563118,"INCLINATION":98.6044,"RA_OF_ASC_NODE":155.614,"ARG_OF_PERICENTER":130.481,"MEAN_ANOMALY":230.1339,"EPHEMERIS_TYPE":0,"CLASSIFICATION_TYPE":"U","NORAD_CAT_ID":54611,"ELEMENT_SET_NO":999,"REV_AT_EPOCH":17682,"BSTAR":0.0044540946,"MEAN_MOTION_DOT":0.00057345,"MEAN_MOTION_DDOT":0}]
